CCSDS_OMM_VERS = 2.0
CREATION_DATE  = 
ORIGINATOR     = 

OBJECT_NAME    = 1998-067XU
OBJECT_ID      = 1998-067XU
CENTER_NAME    = EARTH
REF_FRAME      = TEME
TIME_SYSTEM    = UTC
MEAN_ELEMENT_THEORY = SGP/SGP4

EPOCH          = 2026-01-31T20:18:16.033824
MEAN_MOTION    = 15.59932347
ECCENTRICITY   = .00026059
INCLINATION    = 51.6262
RA_OF_ASC_NODE = 252.1321
ARG_OF_PERICENTER = 161.1183
MEAN_ANOMALY   = 198.9907

EPHEMERIS_TYPE = 0
CLASSIFICATION_TYPE = U
NORAD_CAT_ID   = 66908
ELEMENT_SET_NO = 999
REV_AT_EPOCH   = 941
BSTAR          = .10124197E-2
MEAN_MOTION_DOT = .83595E-3
MEAN_MOTION_DDOT = 0

CCSDS_OMM_VERS = 2.0
CREATION_DATE  = 
ORIGINATOR     = 

OBJECT_NAME    = SILVERSAT
OBJECT_ID      = 1998-067XV
CENTER_NAME    = EARTH
REF_FRAME      = TEME
TIME_SYSTEM    = UTC
MEAN_ELEMENT_THEORY = SGP/SGP4

EPOCH          = 2026-01-31T19:51:02.435328
MEAN_MOTION    = 15.61074846
ECCENTRICITY   = .00032258
INCLINATION    = 51.6269
RA_OF_ASC_NODE = 252.0071
ARG_OF_PERICENTER = 173.2127
MEAN_ANOMALY   = 186.8911

EPHEMERIS_TYPE = 0
CLASSIFICATION_TYPE = U
NORAD_CAT_ID   = 66909
ELEMENT_SET_NO = 999
REV_AT_EPOCH   = 941
BSTAR          = .10748739E-2
MEAN_MOTION_DOT = .92891E-3
MEAN_MOTION_DDOT = 0

CCSDS_OMM_VERS = 2.0
CREATION_DATE  = 
ORIGINATOR     = 

OBJECT_NAME    = 1998-067XW
OBJECT_ID      = 1998-067XW
CENTER_NAME    = EARTH
REF_FRAME      = TEME
TIME_SYSTEM    = UTC
MEAN_ELEMENT_THEORY = SGP/SGP4

EPOCH          = 2026-01-31T21:36:25.978752
MEAN_MOTION    = 15.60019583
ECCENTRICITY   = .00014388
INCLINATION    = 51.6260
RA_OF_ASC_NODE = 251.7417
ARG_OF_PERICENTER = 161.7321
MEAN_ANOMALY   = 198.3724

EPHEMERIS_TYPE = 0
CLASSIFICATION_TYPE = U
NORAD_CAT_ID   = 66910
ELEMENT_SET_NO = 999
REV_AT_EPOCH   = 942
BSTAR          = .88155775E-3
MEAN_MOTION_DOT = .72864E-3
MEAN_MOTION_DDOT = 0

CCSDS_OMM_VERS = 2.0
CREATION_DATE  = 
ORIGINATOR     = 

OBJECT_NAME    = 1998-067XX
OBJECT_ID      = 1998-067XX
CENTER_NAME    = EARTH
REF_FRAME      = TEME
TIME_SYSTEM    = UTC
MEAN_ELEMENT_THEORY = SGP/SGP4

EPOCH          = 2026-01-31T20:48:22.905792
MEAN_MOTION    = 15.62146385
ECCENTRICITY   = .00023885
INCLINATION    = 51.6252
RA_OF_ASC_NODE = 251.5173
ARG_OF_PERICENTER = 193.4202
MEAN_ANOMALY   = 166.6729

EPHEMERIS_TYPE = 0
CLASSIFICATION_TYPE = U
NORAD_CAT_ID   = 66911
ELEMENT_SET_NO = 999
REV_AT_EPOCH   = 941
BSTAR          = .99903536E-3
MEAN_MOTION_DOT = .89928E-3
MEAN_MOTION_DDOT = 0

CCSDS_OMM_VERS = 2.0
CREATION_DATE  = 
ORIGINATOR     = 

OBJECT_NAME    = 1998-067XY
OBJECT_ID      = 1998-067XY
CENTER_NAME    = EARTH
REF_FRAME      = TEME
TIME_SYSTEM    = UTC
MEAN_ELEMENT_THEORY = SGP/SGP4

EPOCH          = 2026-01-31T19:42:45.983520
MEAN_MOTION    = 15.57537864
ECCENTRICITY   = .00021963
INCLINATION    = 51.6284
RA_OF_ASC_NODE = 252.7194
ARG_OF_PERICENTER = 130.1632
MEAN_ANOMALY   = 229.9552

EPHEMERIS_TYPE = 0
CLASSIFICATION_TYPE = U
NORAD_CAT_ID   = 66912
ELEMENT_SET_NO = 999
REV_AT_EPOCH   = 939
BSTAR          = .75096348E-3
MEAN_MOTION_DOT = .56292E-3
MEAN_MOTION_DDOT = 0

